OBJECT_NAME,OBJECT_ID,EPOCH,MEAN_MOTION,ECCENTRICITY,INCLINATION,RA_OF_ASC_NODE,ARG_OF_PERICENTER,MEAN_ANOMALY,EPHEMERIS_TYPE,CLASSIFICATION_TYPE,NORAD_CAT_ID,ELEMENT_SET_NO,REV_AT_EPOCH,BSTAR,MEAN_MOTION_DOT,MEAN_MOTION_DDOT
SAUDISAT 5A,2018-102A,2026-07-02T21:07:54.908832,15.28212214,.00112,97.3058,245.1599,81.6491,278.6018,0,U,43831,999,41807,.228E-3,.6206E-4,0
SAUDISAT 5B,2018-102C,2026-07-02T19:57:02.374272,15.28460124,.0011928,97.3166,248.2097,83.5881,276.6717,0,U,43833,999,41818,.21682E-3,.5944E-4,0
GAOFEN-10R,2019-066A,2026-07-02T20:59:05.086752,14.83035158,.0007193,98.0503,137.5679,84.7221,275.4812,0,U,44622,999,36470,.16799E-3,.1312E-4,0
CARTOSAT-3,2019-081A,2026-07-02T21:34:11.785728,15.19249982,.0013417,97.4296,245.5127,98.8723,261.4031,0,U,44804,999,36585,.19207E-3,.3989E-4,0
GAOFEN-12 01,2019-082A,2026-07-02T21:29:07.325952,14.80471627,.0001627,97.8103,189.8601,54.7951,305.3413,0,U,44819,999,35641,.65825E-4,.453E-5,0
CSG-1,2019-092A,2026-07-02T20:22:15.766176,14.82157870,.0001419,97.8891,7.2246,91.1611,268.9765,0,U,44873,999,35379,.67204E-4,.483E-5,0
NEMO-HD,2020-061F,2026-07-02T20:54:01.700928,15.44915490,.0001462,97.1909,245.6678,73.2434,286.8975,0,U,46277,999,32440,.25123E-3,.11728E-3,0
SENTINEL-6A,2020-086A,2026-07-02T20:33:49.495104,12.80929977,.0007834,66.0413,102.5074,269.9913,90.0205,0,U,46984,999,26233,.67278E-4,-.46E-6,0
CAS500-1,2021-022A,2026-07-02T20:39:44.476416,15.20150741,.0003608,97.3881,78.7959,220.7257,139.3709,0,U,47932,999,29314,.33728E-3,.7231E-4,0
GAOFEN-12 02,2021-026A,2026-07-02T20:10:08.535648,14.80308395,.0004925,97.9926,181.9572,166.6611,193.4732,0,U,48079,999,28407,.61031E-4,.412E-5,0
PLEIADES NEO 3,2021-034A,2026-07-02T20:28:32.129760,14.81673588,.0001395,97.8941,258.3942,90.0306,270.1066,0,U,48268,999,27997,.10903E-4,.34E-6,0
PLEIADES NEO 4,2021-073E,2026-07-02T19:39:53.809056,14.81665200,.0001301,97.8936,258.3570,88.1421,271.9941,0,U,49070,999,26368,.20541E-4,.11E-5,0
LANDSAT 9,2021-088A,2026-07-02T15:32:03.732288,14.57108136,.0001187,98.2275,253.6373,87.7642,272.3692,0,U,49260,999,25325,.10221E-3,.415E-5,0
CSG-2,2022-008A,2026-07-02T19:33:38.710368,14.82158093,.0001602,97.8883,7.1857,86.0247,274.1149,0,U,51444,999,23890,.14834E-3,.1129E-4,0
GAOFEN-12 03,2022-069A,2026-07-02T19:19:48.406368,14.80060023,.0002475,97.8262,71.2813,85.5730,274.5765,0,U,52912,999,21692,.14786E-3,.1069E-4,0
SWOT,2022-173A,2026-07-02T20:25:34.779936,14.00171427,.0000321,77.6102,14.1633,86.6096,273.5092,0,U,54754,999,18134,.73878E-4,.106E-5,0
GAOFEN-12 04,2023-123A,2026-07-02T21:21:56.578752,14.79756579,.0003929,97.9112,101.6766,75.0071,285.1575,0,U,57654,999,15495,.15624E-3,.1123E-4,0
PARS 1,2024-039Q,2026-07-02T21:56:52.615968,15.46059919,.0011065,97.4833,165.3332,65.3359,294.9041,0,U,59065,999,13107,.24988E-3,.12151E-3,0
RESURS-P 4,2024-061A,2026-07-02T20:55:43.863744,15.32220803,.0003046,97.2759,131.4986,107.5125,252.6450,0,U,59371,999,12616,.10981E-3,.3339E-4,0
LEGION 1,2024-081A,2026-07-02T19:07:24.827232,15.16774417,.0008077,97.5014,261.4878,320.9958,39.0692,0,U,59625,999,11990,.22093E-3,.4273E-4,0
LEGION 2,2024-081B,2026-07-02T19:50:54.582432,15.16752900,.0009859,97.5014,261.6149,282.7640,77.2491,0,U,59626,999,11991,.26073E-3,.5054E-4,0
ALOS-4 (DAICHI-4),2024-123A,2026-07-02T20:23:03.331104,14.79475621,.0001611,97.9220,280.8006,97.4056,262.7339,0,U,60182,999,10819,.22752E-3,.1648E-4,0
LEGION 3,2024-146A,2026-07-02T19:31:27.689088,15.15587211,.0008832,45.0023,306.7512,270.5308,89.4558,0,U,60452,999,10439,.29748E-3,.5488E-4,0
LEGION 4,2024-146B,2026-07-02T19:35:04.426944,15.16159778,.0011888,45.0024,38.6394,35.3490,324.8175,0,U,60453,999,10324,.28151E-3,.527E-4,0
SENTINEL-2C,2024-157A,2026-07-02T20:05:05.239680,14.30812725,.0000945,98.5686,258.3973,92.0582,268.0709,0,U,60989,999,9522,.67057E-4,.132E-5,0
IONOSFERA-M 1,2024-199A,2026-07-02T21:02:06.061920,14.22757310,.0002213,98.7152,56.8816,89.5438,270.5993,0,U,61735,999,12993,.57243E-4,.84E-6,0
IONOSFERA-M 2,2024-199B,2026-07-02T20:10:09.764256,14.22760663,.0000404,98.7151,56.7564,53.0468,307.0747,0,U,61736,999,13305,.5908E-4,.88E-6,0
PRSC-EO1,2025-012A,2026-07-02T21:12:29.610720,15.17646110,.0005784,97.4219,256.0366,188.5235,171.5901,0,U,62725,999,8057,.4132E-3,.8256E-4,0
BIOMASS,2025-090A,2026-07-02T20:30:17.956800,14.67360834,.0001471,98.0748,10.9387,85.9487,274.1886,0,U,63772,999,6298,.23138E-3,.1259E-4,0
GOSAT-GW (IBUKI GW),2025-141A,2026-07-02T20:55:30.932256,14.67554342,.0001432,98.0568,120.9340,85.7051,274.4317,0,U,64694,999,5414,.15048E-4,.38E-6,0
IONOSFERA-M 3,2025-155A,2026-07-02T20:55:50.131200,14.21489209,.000184,98.6033,145.3828,130.8977,229.2360,0,U,64876,999,4863,.54175E-4,.76E-6,0
